[
    {
        "Altitude(m)": 711355.1672731775,
        "Argument of Periapsis(deg)": 0.010251109067964361,
        "Eccentricity": 0.0,
        "Inclination(deg)": 45.0,
        "Latitude(deg)": -29.0764329988416,
        "Longitude(deg)": -12.115581108166426,
        "Mean Anomaly(deg)": -136.89280501726722,
        "RAAN(deg)": 234.9903232526876,
        "Satellite Name": "Constellation 1 1047",
        "Satellite Number": 1047,
        "Semi-Major Axis(m)": 7083131.272910544,
        "Time(s)": 171
    },
    {
        "Altitude(m)": 711368.9286532436,
        "Argument of Periapsis(deg)": 0.010311057074209765,
        "Eccentricity": 0.0,
        "Inclination(deg)": 45.0,
        "Latitude(deg)": -29.112282689791222,
        "Longitude(deg)": -12.06374536149051,
        "Mean Anomaly(deg)": -136.83210387701732,
        "RAAN(deg)": 234.99026666352205,
        "Satellite Name": "Constellation 1 1047",
        "Satellite Number": 1047,
        "Semi-Major Axis(m)": 7083131.272910544,
        "Time(s)": 172
    },
    {
        "Altitude(m)": 711382.6871513778,
        "Argument of Periapsis(deg)": 0.010371005080455171,
        "Eccentricity": 0.0,
        "Inclination(deg)": 45.0,
        "Latitude(deg)": -29.14810876170571,
        "Longitude(deg)": -12.011870977215821,
        "Mean Anomaly(deg)": -136.77140273676744,
        "RAAN(deg)": 234.9902100743565,
        "Satellite Name": "Constellation 1 1047",
        "Satellite Number": 1047,
        "Semi-Major Axis(m)": 7083131.272910544,
        "Time(s)": 173
    },
    {
        "Altitude(m)": 711396.4427195276,
        "Argument of Periapsis(deg)": 0.010430953086700577,
        "Eccentricity": 0.0,
        "Inclination(deg)": 45.0,
        "Latitude(deg)": -29.18391116450741,
        "Longitude(deg)": -11.95995789698067,
        "Mean Anomaly(deg)": -136.71070159651757,
        "RAAN(deg)": 234.9901534851909,
        "Satellite Name": "Constellation 1 1047",
        "Satellite Number": 1047,
        "Semi-Major Axis(m)": 7083131.272910544,
        "Time(s)": 174
    },
    {
        "Altitude(m)": 711410.1953096543,
        "Argument of Periapsis(deg)": 0.010490901092945983,
        "Eccentricity": 0.0,
        "Inclination(deg)": 45.0,
        "Latitude(deg)": -29.219689848047633,
        "Longitude(deg)": -11.908006062466654,
        "Mean Anomaly(deg)": -136.65000045626763,
        "RAAN(deg)": 234.9900968960253,
        "Satellite Name": "Constellation 1 1047",
        "Satellite Number": 1047,
        "Semi-Major Axis(m)": 7083131.272910544,
        "Time(s)": 175
    },
    {
        "Altitude(m)": 711423.9448736997,
        "Argument of Periapsis(deg)": 0.010550849099191389,
        "Eccentricity": 0.0,
        "Inclination(deg)": 45.0,
        "Latitude(deg)": -29.25544476210726,
        "Longitude(deg)": -11.856015415399098,
        "Mean Anomaly(deg)": -136.58929931601773,
        "RAAN(deg)": 234.99004030685975,
        "Satellite Name": "Constellation 1 1047",
        "Satellite Number": 1047,
        "Semi-Major Axis(m)": 7083131.272910544,
        "Time(s)": 176
    },
    {
        "Altitude(m)": 711437.691363627,
        "Argument of Periapsis(deg)": 0.010610797105436795,
        "Eccentricity": 0.0,
        "Inclination(deg)": 45.0,
        "Latitude(deg)": -29.29117585639623,
        "Longitude(deg)": -11.80398589754741,
        "Mean Anomaly(deg)": -136.5285981757678,
        "RAAN(deg)": 234.9899837176942,
        "Satellite Name": "Constellation 1 1047",
        "Satellite Number": 1047,
        "Semi-Major Axis(m)": 7083131.272910544,
        "Time(s)": 177
    },
    {
        "Altitude(m)": 711451.4347313857,
        "Argument of Periapsis(deg)": 0.0106707451116822,
        "Eccentricity": 0.0,
        "Inclination(deg)": 45.0,
        "Latitude(deg)": -29.326883080553923,
        "Longitude(deg)": -11.751917618823141,
        "Mean Anomaly(deg)": -136.46789703551792,
        "RAAN(deg)": 234.98992712852865,
        "Satellite Name": "Constellation 1 1047",
        "Satellite Number": 1047,
        "Semi-Major Axis(m)": 7083131.272910544,
        "Time(s)": 178
    },
    {
        "Altitude(m)": 711465.1749289292,
        "Argument of Periapsis(deg)": 0.010730693117927606,
        "Eccentricity": 0.0,
        "Inclination(deg)": 45.0,
        "Latitude(deg)": -29.362566384148117,
        "Longitude(deg)": -11.699810184891653,
        "Mean Anomaly(deg)": -136.40719589526802,
        "RAAN(deg)": 234.989870539363,
        "Satellite Name": "Constellation 1 1047",
        "Satellite Number": 1047,
        "Semi-Major Axis(m)": 7083131.272910544,
        "Time(s)": 179
    },
    {
        "Altitude(m)": 711478.9119082196,
        "Argument of Periapsis(deg)": 0.01079064112417301,
        "Eccentricity": 0.0,
        "Inclination(deg)": 45.0,
        "Latitude(deg)": -29.39822571667628,
        "Longitude(deg)": -11.647663705756027,
        "Mean Anomaly(deg)": -136.34649475501817,
        "RAAN(deg)": 234.98981395019746,
        "Satellite Name": "Constellation 1 1047",
        "Satellite Number": 1047,
        "Semi-Major Axis(m)": 7083131.272910544,
        "Time(s)": 180
    },
    {
        "Altitude(m)": 711492.6456212137,
        "Argument of Periapsis(deg)": 0.010850589130418416,
        "Eccentricity": 0.0,
        "Inclination(deg)": 45.0,
        "Latitude(deg)": -29.43386102756498,
        "Longitude(deg)": -11.595478123368451,
        "Mean Anomaly(deg)": -136.28579361476824,
        "RAAN(deg)": 234.9897573610319,
        "Satellite Name": "Constellation 1 1047",
        "Satellite Number": 1047,
        "Semi-Major Axis(m)": 7083131.272910544,
        "Time(s)": 181
    },
    {
        "Altitude(m)": 711506.376019869,
        "Argument of Periapsis(deg)": 0.01091053713666382,
        "Eccentricity": 0.0,
        "Inclination(deg)": 45.0,
        "Latitude(deg)": -29.469472266169426,
        "Longitude(deg)": -11.543253379728796,
        "Mean Anomaly(deg)": -136.2250924745184,
        "RAAN(deg)": 234.98970077186635,
        "Satellite Name": "Constellation 1 1047",
        "Satellite Number": 1047,
        "Semi-Major Axis(m)": 7083131.272910544,
        "Time(s)": 182
    },
    {
        "Altitude(m)": 711520.1030561521,
        "Argument of Periapsis(deg)": 0.010970485142909228,
        "Eccentricity": 0.0,
        "Inclination(deg)": 45.0,
        "Latitude(deg)": -29.505059381774057,
        "Longitude(deg)": -11.49098941688445,
        "Mean Anomaly(deg)": -136.16439133426843,
        "RAAN(deg)": 234.9896441827008,
        "Satellite Name": "Constellation 1 1047",
        "Satellite Number": 1047,
        "Semi-Major Axis(m)": 7083131.272910544,
        "Time(s)": 183
    },
    {
        "Altitude(m)": 711533.8266820272,
        "Argument of Periapsis(deg)": 0.011030433149154634,
        "Eccentricity": 0.0,
        "Inclination(deg)": 45.0,
        "Latitude(deg)": -29.54062232359198,
        "Longitude(deg)": -11.438686176931718,
        "Mean Anomaly(deg)": -136.10369019401853,
        "RAAN(deg)": 234.98958759353516,
        "Satellite Name": "Constellation 1 1047",
        "Satellite Number": 1047,
        "Semi-Major Axis(m)": 7083131.272910544,
        "Time(s)": 184
    },
    {
        "Altitude(m)": 711547.5468494605,
        "Argument of Periapsis(deg)": 0.01109038115540004,
        "Eccentricity": 0.0,
        "Inclination(deg)": 45.0,
        "Latitude(deg)": -29.57616104076556,
        "Longitude(deg)": -11.386343770112603,
        "Mean Anomaly(deg)": -136.0429890537687,
        "RAAN(deg)": 234.9895310043696,
        "Satellite Name": "Constellation 1 1047",
        "Satellite Number": 1047,
        "Semi-Major Axis(m)": 7083131.272910544,
        "Time(s)": 185
    },
    {
        "Altitude(m)": 711561.2635104217,
        "Argument of Periapsis(deg)": 0.011150329161645444,
        "Eccentricity": 0.0,
        "Inclination(deg)": 45.0,
        "Latitude(deg)": -29.611675482365225,
        "Longitude(deg)": -11.333961802427808,
        "Mean Anomaly(deg)": -135.98228791351875,
        "RAAN(deg)": 234.98947441520406,
        "Satellite Name": "Constellation 1 1047",
        "Satellite Number": 1047,
        "Semi-Major Axis(m)": 7083131.272910544,
        "Time(s)": 186
    },
    {
        "Altitude(m)": 711574.976616889,
        "Argument of Periapsis(deg)": 0.01121027716789085,
        "Eccentricity": 0.0,
        "Inclination(deg)": 45.0,
        "Latitude(deg)": -29.647165597390774,
        "Longitude(deg)": -11.281540384219767,
        "Mean Anomaly(deg)": -135.92158677326887,
        "RAAN(deg)": 234.9894178260385,
        "Satellite Name": "Constellation 1 1047",
        "Satellite Number": 1047,
        "Semi-Major Axis(m)": 7083131.272910544,
        "Time(s)": 187
    },
    {
        "Altitude(m)": 711588.6861208336,
        "Argument of Periapsis(deg)": 0.011270225174136258,
        "Eccentricity": 0.0,
        "Inclination(deg)": 45.0,
        "Latitude(deg)": -29.682631334770747,
        "Longitude(deg)": -11.229079457784485,
        "Mean Anomaly(deg)": -135.86088563301894,
        "RAAN(deg)": 234.98936123687295,
        "Satellite Name": "Constellation 1 1047",
        "Satellite Number": 1047,
        "Semi-Major Axis(m)": 7083131.272910544,
        "Time(s)": 188
    },
    {
        "Altitude(m)": 711602.3919742338,
        "Argument of Periapsis(deg)": 0.011330173180381662,
        "Eccentricity": 0.0,
        "Inclination(deg)": 45.0,
        "Latitude(deg)": -29.718072643362152,
        "Longitude(deg)": -11.176578965470085,
        "Mean Anomaly(deg)": -135.8001844927691,
        "RAAN(deg)": 234.9893046477074,
        "Satellite Name": "Constellation 1 1047",
        "Satellite Number": 1047,
        "Semi-Major Axis(m)": 7083131.272910544,
        "Time(s)": 189
    }
]